[{"OBJECT_NAME":"ION SCV-011","OBJECT_ID":"2023-084AB","EPOCH":"2026-03-09T22:35:16.566144","MEAN_MOTION":15.27752464,"ECCENTRICITY":0.00079323,"INCLINATION":98.1356,"RA_OF_ASC_NODE":247.1056,"ARG_OF_PERICENTER":30.3898,"MEAN_ANOMALY":329.7798,"EPHEMERIS_TYPE":0,"CLASSIFICATION_TYPE":"U","NORAD_CAT_ID":56957,"ELEMENT_SET_NO":999,"REV_AT_EPOCH":15065,"BSTAR":0.0002590454,"MEAN_MOTION_DOT":6.943e-5,"MEAN_MOTION_DDOT":0},{"OBJECT_NAME":"STARLINK-32892","OBJECT_ID":"2025-024Q","EPOCH":"2026-03-09T02:23:47.756256","MEAN_MOTION":15.27584036,"ECCENTRICITY":1.473e-5,"INCLINATION":43.0009,"RA_OF_ASC_NODE":328.8735,"ARG_OF_PERICENTER":240.2675,"MEAN_ANOMALY":119.8162,"EPHEMERIS_TYPE":0,"CLASSIFICATION_TYPE":"U","NORAD_CAT_ID":62893,"ELEMENT_SET_NO":999,"REV_AT_EPOCH":6217,"BSTAR":0.0010488869,"MEAN_MOTION_DOT":0.00028717,"MEAN_MOTION_DDOT":0}]
